STARLINK-5859           
1 55915U 23037B   25212.89921915  .00000096  00000+0  15808-4 0  9996
2 55915  70.0004 141.1988 0002716 267.2674  92.8174 14.98331525131108
STARLINK-5796           
1 55916U 23037C   25212.91174225 -.00000064  00000+0  24244-5 0  9995
2 55916  70.0009 141.2430 0003270 262.7203  97.3584 14.98328142130410
STARLINK-5867           
1 55918U 23037E   25212.90756759 -.00000073  00000+0  16961-5 0  9991
2 55918  70.0006 141.2287 0002994 267.9578  92.1238 14.98330645130413
STARLINK-6296           
1 56773U 23078G   25212.92426195 -.00000032  00000+0  50910-5 0  9993
2 56773  70.0009 141.2542 0003247 260.1645  99.9148 14.98329243120597
STARLINK-6292           
1 56775U 23078J   25212.92009078 -.00000225  00000+0 -11092-4 0  9994
2 56775  70.0011 141.2408 0002882 267.7494  92.3335 14.98327313120593
STARLINK-6345           
1 56790U 23078Z   25212.90338499 -.00003245  00000+0 -26423-3 0  9999
2 56790  70.0012 141.1843 0002790 265.4006  94.6834 14.98340616120595
