{
  "original_analysis": {
    "covered_bins": 36,
    "total_bins": 36,
    "coverage_percent": 100.0,
    "distribution": {
      "9": 237,
      "7": 299,
      "11": 222,
      "5": 175,
      "6": 300,
      "34": 325,
      "8": 363,
      "10": 232,
      "13": 201,
      "12": 224,
      "22": 212,
      "24": 224,
      "25": 247,
      "20": 215,
      "21": 242,
      "23": 181,
      "4": 241,
      "18": 188,
      "16": 270,
      "17": 215,
      "19": 179,
      "15": 218,
      "29": 262,
      "27": 245,
      "31": 186,
      "26": 243,
      "28": 166,
      "3": 343,
      "1": 143,
      "33": 312,
      "35": 308,
      "32": 245,
      "30": 297,
      "14": 166,
      "0": 274,
      "2": 295
    },
    "total_satellites": 8695
  },
  "phase2_results": {
    "phase": "Phase 2 - Orbital Diversity Filtering",
    "input_count": 8695,
    "output_count": 500,
    "reduction_ratio": 0.05750431282346176,
    "selected_satellites": [
      {
        "OBJECT_NAME": "STARLINK-6292",
        "OBJECT_ID": "2023-078J",
        "EPOCH": "2025-07-31T22:04:55.843392",
        "MEAN_MOTION": 14.98327313,
        "ECCENTRICITY": 0.0002882,
        "INCLINATION": 70.0011,
        "RA_OF_ASC_NODE": 141.2408,
        "ARG_OF_PERICENTER": 267.7494,
        "MEAN_ANOMALY": 92.3335,
        "EPHEMERIS_TYPE": 0,
        "CLASSIFICATION_TYPE": "U",
        "NORAD_CAT_ID": 56775,
        "ELEMENT_SET_NO": 999,
        "REV_AT_EPOCH": 12059,
        "BSTAR": -1.1092e-05,
        "MEAN_MOTION_DOT": -2.25e-06,
        "MEAN_MOTION_DDOT": 0,
        "constellation": "starlink",
        "quality_scores": {
          "orbital_stability": 21.679192899999997,
          "coverage_uniformity": 20,
          "handover_frequency": 20.693422222222225,
          "signal_quality": 25,
          "total_score": 87.37261512222221
        }
      },
      {
        "OBJECT_NAME": "STARLINK-5859",
        "OBJECT_ID": "2023-037B",
        "EPOCH": "2025-07-31T21:34:52.534560",
        "MEAN_MOTION": 14.98331525,
        "ECCENTRICITY": 0.0002716,
        "INCLINATION": 70.0004,
        "RA_OF_ASC_NODE": 141.1988,
        "ARG_OF_PERICENTER": 267.2674,
        "MEAN_ANOMALY": 92.8174,
        "EPHEMERIS_TYPE": 0,
        "CLASSIFICATION_TYPE": "U",
        "NORAD_CAT_ID": 55915,
        "ELEMENT_SET_NO": 999,
        "REV_AT_EPOCH": 13110,
        "BSTAR": 1.5808e-05,
        "MEAN_MOTION_DOT": 9.6e-07,
        "MEAN_MOTION_DDOT": 0,
        "constellation": "starlink",
        "quality_scores": {
          "orbital_stability": 21.6815425,
          "coverage_uniformity": 20,
          "handover_frequency": 20.688755555555556,
          "signal_quality": 25,
          "total_score": 87.37029805555555
        }
      },
      {
        "OBJECT_NAME": "STARLINK-5867",
        "OBJECT_ID": "2023-037E",
        "EPOCH": "2025-07-31T21:46:53.839776",
        "MEAN_MOTION": 14.98330645,
        "ECCENTRICITY": 0.0002994,
        "INCLINATION": 70.0006,
        "RA_OF_ASC_NODE": 141.2287,
        "ARG_OF_PERICENTER": 267.9578,
        "MEAN_ANOMALY": 92.1238,
        "EPHEMERIS_TYPE": 0,
        "CLASSIFICATION_TYPE": "U",
        "NORAD_CAT_ID": 55918,
        "ELEMENT_SET_NO": 999,
        "REV_AT_EPOCH": 13041,
        "BSTAR": 1.6961e-06,
        "MEAN_MOTION_DOT": -7.3e-07,
        "MEAN_MOTION_DDOT": 0,
        "constellation": "starlink",
        "quality_scores": {
          "orbital_stability": 21.677401833333327,
          "coverage_uniformity": 20,
          "handover_frequency": 20.69207777777778,
          "signal_quality": 25,
          "total_score": 87.3694796111111
        }
      },
      {
        "OBJECT_NAME": "STARLINK-6296",
        "OBJECT_ID": "2023-078G",
        "EPOCH": "2025-07-31T22:10:56.232480",
        "MEAN_MOTION": 14.98329243,
        "ECCENTRICITY": 0.0003247,
        "INCLINATION": 70.0009,
        "RA_OF_ASC_NODE": 141.2542,
        "ARG_OF_PERICENTER": 260.1645,
        "MEAN_ANOMALY": 99.9148,
        "EPHEMERIS_TYPE": 0,
        "CLASSIFICATION_TYPE": "U",
        "NORAD_CAT_ID": 56773,
        "ELEMENT_SET_NO": 999,
        "REV_AT_EPOCH": 12059,
        "BSTAR": 5.091e-06,
        "MEAN_MOTION_DOT": -3.2e-07,
        "MEAN_MOTION_DDOT": 0,
        "constellation": "starlink",
        "quality_scores": {
          "orbital_stability": 21.673653566666665,
          "coverage_uniformity": 20,
          "handover_frequency": 20.69491111111111,
          "signal_quality": 25,
          "total_score": 87.36856467777778
        }
      },
      {
        "OBJECT_NAME": "STARLINK-6345",
        "OBJECT_ID": "2023-078Z",
        "EPOCH": "2025-07-31T21:40:52.463136",
        "MEAN_MOTION": 14.98340616,
        "ECCENTRICITY": 0.000279,
        "INCLINATION": 70.0012,
        "RA_OF_ASC_NODE": 141.1843,
        "ARG_OF_PERICENTER": 265.4006,
        "MEAN_ANOMALY": 94.6834,
        "EPHEMERIS_TYPE": 0,
        "CLASSIFICATION_TYPE": "U",
        "NORAD_CAT_ID": 56790,
        "ELEMENT_SET_NO": 999,
        "REV_AT_EPOCH": 12059,
        "BSTAR": -0.00026423,
        "MEAN_MOTION_DOT": -3.245e-05,
        "MEAN_MOTION_DDOT": 0,
        "constellation": "starlink",
        "quality_scores": {
          "orbital_stability": 21.68012946666667,
          "coverage_uniformity": 20,
          "handover_frequency": 20.687144444444446,
          "signal_quality": 25,
          "total_score": 87.36727391111111
        }
      },
      {
        "OBJECT_NAME": "STARLINK-5796",
        "OBJECT_ID": "2023-037C",
        "EPOCH": "2025-07-31T21:52:54.530400",
        "MEAN_MOTION": 14.98328142,
        "ECCENTRICITY": 0.000327,
        "INCLINATION": 70.0009,
        "RA_OF_ASC_NODE": 141.243,
        "ARG_OF_PERICENTER": 262.7203,
        "MEAN_ANOMALY": 97.3584,
        "EPHEMERIS_TYPE": 0,
        "CLASSIFICATION_TYPE": "U",
        "NORAD_CAT_ID": 55916,
        "ELEMENT_SET_NO": 999,
        "REV_AT_EPOCH": 13041,
        "BSTAR": 2.4244e-06,
        "MEAN_MOTION_DOT": -6.4e-07,
        "MEAN_MOTION_DDOT": 0,
        "constellation": "starlink",
        "quality_scores": {
          "orbital_stability": 21.673345266666665,
          "coverage_uniformity": 20,
          "handover_frequency": 20.693666666666665,
          "signal_quality": 25,
          "total_score": 87.36701193333333
        }
      }